{"type": "FeatureCollection", "features": [ {"type": "Feature", "properties": {"norad_id": 66605, "name": "STARLINK-36052", "group": "last-30-days", "lat": -40.4997838765861, "lon": 11.346608684530622, "alt_km": 444.47799144549026, "timestamp": "2025-12-24T09:46:29.713644+00:00", "meta": {"OBJECT_NAME": "STARLINK-36052", "OBJECT_ID": "2025-270T", "EPOCH": "2025-12-23T18:40:57.101088", "MEAN_MOTION": 15.40742025, "ECCENTRICITY": 0.00041745, "INCLINATION": 43.0051, "RA_OF_ASC_NODE": 128.5705, "ARG_OF_PERICENTER": 274.749, "MEAN_ANOMALY": 85.2889, "EPHEMERIS_TYPE": 0, "CLASSIFICATION_TYPE": "U", "NORAD_CAT_ID": 66605, "ELEMENT_SET_NO": 999, "REV_AT_EPOCH": 605, "BSTAR": 0.0011032825, "MEAN_MOTION_DOT": 0.00046136, "MEAN_MOTION_DDOT": 0}, "tle": {"line1": "1 66605U 25270T   25357.77843867  .00046136  00000+0  11033-2 0  9990", "line2": "2 66605  43.0051 128.5705 0004174 274.7490  85.2889 15.40742025  6056"}}, "geometry": {"type": "Point", "coordinates": [11.346608684530622, -40.4997838765861]}}, {"type": "Feature", "properties": {"norad_id": 66606, "name": "STARLINK-36063", "group": "last-30-days", "lat": -14.075907470458358, "lon": 109.12467639876056, "alt_km": 445.20151483274185, "timestamp": "2025-12-24T09:46:29.713654+00:00", "meta": {"OBJECT_NAME": "STARLINK-36063", "OBJECT_ID": "2025-270U", "EPOCH": "2025-12-24T04:00:01.998720", "MEAN_MOTION": 15.40660704, "ECCENTRICITY": 0.0001586, "INCLINATION": 43.0008, "RA_OF_ASC_NODE": 126.12, "ARG_OF_PERICENTER": 263.5978, "MEAN_ANOMALY": 179.5219, "EPHEMERIS_TYPE": 0, "CLASSIFICATION_TYPE": "U", "NORAD_CAT_ID": 66606, "ELEMENT_SET_NO": 999, "REV_AT_EPOCH": 607, "BSTAR": 0.00098922, "MEAN_MOTION_DOT": 0.00041188, "MEAN_MOTION_DDOT": 0}, "tle": {"line1": "1 66606U 25270U   25358.16668980  .00041188  00000+0  98922-3 0  9991", "line2": "2 66606  43.0008 126.1200 0001586 263.5978 179.5219 15.40660704  6073"}}, "geometry": {"type": "Point", "coordinates": [109.12467639876056, -14.075907470458358]}}, {"type": "Feature", "properties": {"norad_id": 66607, "name": "STARLINK-35993", "group": "last-30-days", "lat": -42.7621581352128, "lon": 27.823871956084698, "alt_km": 444.73260724956435, "timestamp": "2025-12-24T09:46:29.713665+00:00", "meta": {"OBJECT_NAME": "STARLINK-35993", "OBJECT_ID": "2025-270V", "EPOCH": "2025-12-23T18:37:43.843296", "MEAN_MOTION": 15.4077053, "ECCENTRICITY": 0.00032962, "INCLINATION": 43.0018, "RA_OF_ASC_NODE": 128.5532, "ARG_OF_PERICENTER": 268.5661, "MEAN_ANOMALY": 91.4818, "EPHEMERIS_TYPE": 0, "CLASSIFICATION_TYPE": "U", "NORAD_CAT_ID": 66607, "ELEMENT_SET_NO": 999, "REV_AT_EPOCH": 595, "BSTAR": 0.0015822555, "MEAN_MOTION_DOT": 0.00066533, "MEAN_MOTION_DDOT": 0}, "tle": {"line1": "1 66607U 25270V   25357.77620189  .00066533  00000+0  15823-2 0  9996", "line2": "2 66607  43.0018 128.5532 0003296 268.5661  91.4818 15.40770530  5955"}}, "geometry": {"type": "Point", "coordinates": [27.823871956084698, -42.7621581352128]}}, {"type": "Feature", "properties": {"norad_id": 66608, "name": "STARLINK-36036", "group": "last-30-days", "lat": -5.767036010166484, "lon": 118.48124075431717, "alt_km": 444.52858538433793, "timestamp": "2025-12-24T09:46:29.713677+00:00", "meta": {"OBJECT_NAME": "STARLINK-36036", "OBJECT_ID": "2025-270W", "EPOCH": "2025-12-24T04:00:01.998720", "MEAN_MOTION": 15.40672853, "ECCENTRICITY": 0.0001595, "INCLINATION": 43.0008, "RA_OF_ASC_NODE": 126.0898, "ARG_OF_PERICENTER": 261.3676, "MEAN_ANOMALY": 194.1686, "EPHEMERIS_TYPE": 0, "CLASSIFICATION_TYPE": "U", "NORAD_CAT_ID": 66608, "ELEMENT_SET_NO": 999, "REV_AT_EPOCH": 607, "BSTAR": 0.00098682, "MEAN_MOTION_DOT": 0.00041104, "MEAN_MOTION_DDOT": 0}, "tle": {"line1": "1 66608U 25270W   25358.16668980  .00041104  00000+0  98682-3 0  9994", "line2": "2 66608  43.0008 126.0898 0001595 261.3676 194.1686 15.40672853  6077"}}, "geometry": {"type": "Point", "coordinates": [118.48124075431717, -5.767036010166484]}}, {"type": "Feature", "properties": {"norad_id": 66609, "name": "STARLINK-36034", "group": "last-30-days", "lat": 11.115954269124602, "lon": 136.81475029889336, "alt_km": 442.6066428201866, "timestamp": "2025-12-24T09:46:29.713688+00:00", "meta": {"OBJECT_NAME": "STARLINK-36034", "OBJECT_ID": "2025-270X", "EPOCH": "2025-12-24T04:00:01.998720", "MEAN_MOTION": 15.4065892, "ECCENTRICITY": 0.0001691, "INCLINATION": 43.0007, "RA_OF_ASC_NODE": 126.0296, "ARG_OF_PERICENTER": 270.4538, "MEAN_ANOMALY": 209.9922, "EPHEMERIS_TYPE": 0, "CLASSIFICATION_TYPE": "U", "NORAD_CAT_ID": 66609, "ELEMENT_SET_NO": 999, "REV_AT_EPOCH": 607, "BSTAR": 0.00092551, "MEAN_MOTION_DOT": 0.000385, "MEAN_MOTION_DDOT": 0}, "tle": {"line1": "1 66609U 25270X   25358.16668980  .00038500  00000+0  92551-3 0  9990", "line2": "2 66609  43.0007 126.0296 0001691 270.4538 209.9922 15.40658920  6071"}}, "geometry": {"type": "Point", "coordinates": [136.81475029889336, 11.115954269124602]}}, {"type": "Feature", "properties": {"norad_id": 66610, "name": "STARLINK-35680", "group": "last-30-days", "lat": -40.027448575094986, "lon": 60.52157717187181, "alt_km": 446.04853799526245, "timestamp": "2025-12-24T09:46:29.713698+00:00", "meta": {"OBJECT_NAME": "STARLINK-35680", "OBJECT_ID": "2025-270Y", "EPOCH": "2025-12-24T00:00:00.998784", "MEAN_MOTION": 15.40682995, "ECCENTRICITY": 0.0001894, "INCLINATION": 43.0005, "RA_OF_ASC_NODE": 127.2016, "ARG_OF_PERICENTER": 277.9055, "MEAN_ANOMALY": 269.859, "EPHEMERIS_TYPE": 0, "CLASSIFICATION_TYPE": "U", "NORAD_CAT_ID": 66610, "ELEMENT_SET_NO": 999, "REV_AT_EPOCH": 605, "BSTAR": 0.0001957, "MEAN_MOTION_DOT": 7.875e-05, "MEAN_MOTION_DDOT": 0}, "tle": {"line1": "1 66610U 25270Y   25358.00001156  .00007875  00000+0  19570-3 0  9992", "line2": "2 66610  43.0005 127.2016 0001894 277.9055 269.8590 15.40682995  6058"}}, "geometry": {"type": "Point", "coordinates": [60.52157717187181, -40.027448575094986]}}, {"type": "Feature", "properties": {"norad_id": 66611, "name": "STARLINK-35583", "group": "last-30-days", "lat": -29.242278476955892, "lon": 87.86838691984946, "alt_km": 445.89280778996545, "timestamp": "2025-12-24T09:46:29.713708+00:00", "meta": {"OBJECT_NAME": "STARLINK-35583", "OBJECT_ID": "2025-270Z", "EPOCH": "2025-12-24T00:00:00.998784", "MEAN_MOTION": 15.40685444, "ECCENTRICITY": 0.0001583, "INCLINATION": 43.0007, "RA_OF_ASC_NODE": 127.1414, "ARG_OF_PERICENTER": 272.4992, "MEAN_ANOMALY": 300.1471, "EPHEMERIS_TYPE": 0, "CLASSIFICATION_TYPE": "U", "NORAD_CAT_ID": 66611, "ELEMENT_SET_NO": 999, "REV_AT_EPOCH": 611, "BSTAR": 0.00013547, "MEAN_MOTION_DOT": 5.357e-05, "MEAN_MOTION_DDOT": 0}, "tle": {"line1": "1 66611U 25270Z   25358.00001156  .00005357  00000+0  13547-3 0  9994", "line2": "2 66611  43.0007 127.1414 0001583 272.4992 300.1471 15.40685444  6113"}}, "geometry": {"type": "Point", "coordinates": [87.86838691984946, -29.242278476955892]}}, {"type": "Feature", "properties": {"norad_id": 66612, "name": "STARLINK-36039", "group": "last-30-days", "lat": 38.34664894255145, "lon": -176.50742940592392, "alt_km": 438.7793072964414, "timestamp": "2025-12-24T09:46:29.713719+00:00", "meta": {"OBJECT_NAME": "STARLINK-36039", "OBJECT_ID": "2025-270AA", "EPOCH": "2025-12-24T01:42:45.868608", "MEAN_MOTION": 15.40719512, "ECCENTRICITY": 0.0001773, "INCLINATION": 42.9997, "RA_OF_ASC_NODE": 127.3329, "ARG_OF_PERICENTER": 276.9224, "MEAN_ANOMALY": 83.143, "EPHEMERIS_TYPE": 0, "CLASSIFICATION_TYPE": "U", "NORAD_CAT_ID": 66612, "ELEMENT_SET_NO": 999, "REV_AT_EPOCH": 609, "BSTAR": 0.0012841, "MEAN_MOTION_DOT": 0.00053752, "MEAN_MOTION_DDOT": 0}, "tle": {"line1": "1 66612U 25270AA  25358.07136422  .00053752  00000+0  12841-2 0  9994", "line2": "2 66612  42.9997 127.3329 0001773 276.9224  83.1430 15.40719512  6099"}}, "geometry": {"type": "Point", "coordinates": [-176.50742940592392, 38.34664894255145]}}, {"type": "Feature", "properties": {"norad_id": 66613, "name": "STARLINK-36037", "group": "last-30-days", "lat": 42.97591041302129, "lon": -144.05338966145723, "alt_km": 439.0937758635091, "timestamp": "2025-12-24T09:46:29.713729+00:00", "meta": {"OBJECT_NAME": "STARLINK-36037", "OBJECT_ID": "2025-270AB", "EPOCH": "2025-12-24T01:36:18.368064", "MEAN_MOTION": 15.4073626, "ECCENTRICITY": 0.0003037, "INCLINATION": 42.9978, "RA_OF_ASC_NODE": 127.2992, "ARG_OF_PERICENTER": 272.6827, "MEAN_ANOMALY": 87.3682, "EPHEMERIS_TYPE": 0, "CLASSIFICATION_TYPE": "U", "NORAD_CAT_ID": 66613, "ELEMENT_SET_NO": 999, "REV_AT_EPOCH": 609, "BSTAR": 0.0010026, "MEAN_MOTION_DOT": 0.00041861, "MEAN_MOTION_DDOT": 0}, "tle": {"line1": "1 66613U 25270AB  25358.06687926  .00041861  00000+0  10026-2 0  9995", "line2": "2 66613  42.9978 127.2992 0003037 272.6827  87.3682 15.40736260  6095"}}, "geometry": {"type": "Point", "coordinates": [-144.05338966145723, 42.97591041302129]}}, {"type": "Feature", "properties": {"norad_id": 66614, "name": "STARLINK-36040", "group": "last-30-days", "lat": -15.101472384477669, "lon": -38.10479463406164, "alt_km": 445.05018103319526, "timestamp": "2025-12-24T09:46:29.713739+00:00", "meta": {"OBJECT_NAME": "STARLINK-36040", "OBJECT_ID": "2025-270AC", "EPOCH": "2025-12-23T17:20:30.892992", "MEAN_MOTION": 15.40710754, "ECCENTRICITY": 0.00015836, "INCLINATION": 42.9995, "RA_OF_ASC_NODE": 129.0088, "ARG_OF_PERICENTER": 268.7324, "MEAN_ANOMALY": 91.3351, "EPHEMERIS_TYPE": 0, "CLASSIFICATION_TYPE": "U", "NORAD_CAT_ID": 66614, "ELEMENT_SET_NO": 999, "REV_AT_EPOCH": 588, "BSTAR": 0.0006511933, "MEAN_MOTION_DOT": 0.00027004, "MEAN_MOTION_DDOT": 0}, "tle": {"line1": "1 66614U 25270AC  25357.72257978  .00027004  00000+0  65119-3 0  9995", "line2": "2 66614  42.9995 129.0088 0001583 268.7324  91.3351 15.40710754  5887"}}, "geometry": {"type": "Point", "coordinates": [-38.10479463406164, -15.101472384477669]}}]}